{"type":"FeatureCollection","features":[{"type":"Feature","geometry":{"type":"Point","coordinates":[-70.609123,-44.623935]},"properties":{"observation_id":"389677296","taxon_id":"84707","scientific_name":"Berberis microphylla","common_name":"Calafate","rank":"species","observed_on":"2024-01-08","created_at":"2026-08-09T12:10:51-03:00","quality_grade":"research","place_guess":"Tehuelches Department, Chubut Province, Argentina","uri":"https://www.inaturalist.org/observations/389677296","user_login":"justinscholten","photo_url":"https://inaturalist-open-data.s3.amazonaws.com/photos/713806147/medium.jpg"}},{"type":"Feature","geometry":{"type":"Point","coordinates":[-70.0774027483,-44.920194348]},"properties":{"observation_id":"263271849","taxon_id":"797147","scientific_name":"Azorella prolifera","common_name":"Mother-in-law Cushion","rank":"species","observed_on":"2025-02-13","created_at":"2025-02-27T11:18:33-03:00","quality_grade":"research","place_guess":"Río Senguer, Chubut, Argentina","uri":"https://www.inaturalist.org/observations/263271849","user_login":"hhulsberg","photo_url":"https://inaturalist-open-data.s3.amazonaws.com/photos/472936074/medium.jpg"}},{"type":"Feature","geometry":{"type":"Point","coordinates":[-70.2274129997,-44.7309375]},"properties":{"observation_id":"254060087","taxon_id":"797147","scientific_name":"Azorella prolifera","common_name":"Mother-in-law Cushion","rank":"species","observed_on":"2024-12-03","created_at":"2024-12-03T22:29:15-03:00","quality_grade":"research","place_guess":"Río Senguer, Chubut, Argentina","uri":"https://www.inaturalist.org/observations/254060087","user_login":"cesar383","photo_url":"https://inaturalist-open-data.s3.amazonaws.com/photos/454991158/medium.jpg"}},{"type":"Feature","geometry":{"type":"Point","coordinates":[-70.1958318865,-44.7676879904]},"properties":{"observation_id":"257310083","taxon_id":"797147","scientific_name":"Azorella prolifera","common_name":"Mother-in-law Cushion","rank":"species","observed_on":"2024-11-25","created_at":"2025-01-04T00:50:07-03:00","quality_grade":"research","place_guess":"Río Senguer Department, Chubut Province, Argentina","uri":"https://www.inaturalist.org/observations/257310083","user_login":"jeffbisbee","photo_url":"https://inaturalist-open-data.s3.amazonaws.com/photos/461558696/medium.jpeg"}},{"type":"Feature","geometry":{"type":"Point","coordinates":[-70.2951227585,-44.5556759334]},"properties":{"observation_id":"149554349","taxon_id":"797147","scientific_name":"Azorella prolifera","common_name":"Mother-in-law Cushion","rank":"species","observed_on":"2007-01-02","created_at":"2023-02-24T10:53:21-03:00","quality_grade":"research","place_guess":"Departamento Tehuelches, Provinz Chubut, Argentinien","uri":"https://www.inaturalist.org/observations/149554349","user_login":"anaarenaria","photo_url":"https://inaturalist-open-data.s3.amazonaws.com/photos/257725602/medium.jpeg"}},{"type":"Feature","geometry":{"type":"Point","coordinates":[-70.2269184,-44.7311559997]},"properties":{"observation_id":"254062977","taxon_id":"1555395","scientific_name":"Troncosoa seriphioides","common_name":"","rank":"species","observed_on":"2024-12-03","created_at":"2024-12-03T23:06:59-03:00","quality_grade":"research","place_guess":"Río Senguer, Chubut, Argentina","uri":"https://www.inaturalist.org/observations/254062977","user_login":"cesar383","photo_url":"https://inaturalist-open-data.s3.amazonaws.com/photos/454997369/medium.jpg"}},{"type":"Feature","geometry":{"type":"Point","coordinates":[-70.2726541714,-44.6884876946]},"properties":{"observation_id":"257290536","taxon_id":"1555395","scientific_name":"Troncosoa seriphioides","common_name":"","rank":"species","observed_on":"2024-11-25","created_at":"2025-01-03T20:58:45-03:00","quality_grade":"research","place_guess":"Río Senguer Department, Chubut Province, Argentina","uri":"https://www.inaturalist.org/observations/257290536","user_login":"jeffbisbee","photo_url":"https://inaturalist-open-data.s3.amazonaws.com/photos/461518022/medium.jpeg"}},{"type":"Feature","geometry":{"type":"Point","coordinates":[-70.2679776064,-44.692621669]},"properties":{"observation_id":"257293303","taxon_id":"1555395","scientific_name":"Troncosoa seriphioides","common_name":"","rank":"species","observed_on":"2024-11-25","created_at":"2025-01-03T21:34:21-03:00","quality_grade":"research","place_guess":"Río Senguer Department, Chubut Province, Argentina","uri":"https://www.inaturalist.org/observations/257293303","user_login":"jeffbisbee","photo_url":"https://inaturalist-open-data.s3.amazonaws.com/photos/461524199/medium.jpeg"}},{"type":"Feature","geometry":{"type":"Point","coordinates":[-70.3656840774,-44.5969278887]},"properties":{"observation_id":"257309210","taxon_id":"1555395","scientific_name":"Troncosoa seriphioides","common_name":"","rank":"species","observed_on":"2024-11-25","created_at":"2025-01-04T00:36:48-03:00","quality_grade":"research","place_guess":"Tehuelches Department, Chubut Province, Argentina","uri":"https://www.inaturalist.org/observations/257309210","user_login":"jeffbisbee","photo_url":"https://inaturalist-open-data.s3.amazonaws.com/photos/461556725/medium.jpeg"}},{"type":"Feature","geometry":{"type":"Point","coordinates":[-70.4898533333,-44.3544633333]},"properties":{"observation_id":"146172546","taxon_id":"490592","scientific_name":"Perezia recurvata","common_name":"Falkland Lavender","rank":"species","observed_on":"2023-01-07","created_at":"2023-01-08T22:53:51-03:00","quality_grade":"research","place_guess":"Gobernador Costa, Chubut, AR","uri":"https://www.inaturalist.org/observations/146172546","user_login":"nicholasrocha","photo_url":"https://inaturalist-open-data.s3.amazonaws.com/photos/251246765/medium.jpg"}},{"type":"Feature","geometry":{"type":"Point","coordinates":[-70.489905,-44.3544083333]},"properties":{"observation_id":"146093257","taxon_id":"490592","scientific_name":"Perezia recurvata","common_name":"Falkland Lavender","rank":"species","observed_on":"2023-01-07","created_at":"2023-01-08T01:10:45-03:00","quality_grade":"research","place_guess":"Gobernador Costa, Chubut, AR","uri":"https://www.inaturalist.org/observations/146093257","user_login":"dylan_sheng","photo_url":"https://inaturalist-open-data.s3.amazonaws.com/photos/251095304/medium.jpg"}},{"type":"Feature","geometry":{"type":"Point","coordinates":[-70.0758127047,-44.9351518537]},"properties":{"observation_id":"257289818","taxon_id":"569081","scientific_name":"Azorella monantha","common_name":"Tufted azorella","rank":"species","observed_on":"2024-11-25","created_at":"2025-01-03T20:49:07-03:00","quality_grade":"research","place_guess":"Río Senguer Department, Chubut Province, Argentina","uri":"https://www.inaturalist.org/observations/257289818","user_login":"jeffbisbee","photo_url":"https://inaturalist-open-data.s3.amazonaws.com/photos/461516420/medium.jpeg"}},{"type":"Feature","geometry":{"type":"Point","coordinates":[-70.6533966667,-44.688095]},"properties":{"observation_id":"146093253","taxon_id":"569081","scientific_name":"Azorella monantha","common_name":"Tufted azorella","rank":"species","observed_on":"2023-01-07","created_at":"2023-01-08T01:10:38-03:00","quality_grade":"research","place_guess":"Ruta Provincial 20, Chubut, AR","uri":"https://www.inaturalist.org/observations/146093253","user_login":"dylan_sheng","photo_url":"https://inaturalist-open-data.s3.amazonaws.com/photos/251095245/medium.jpg"}},{"type":"Feature","geometry":{"type":"Point","coordinates":[-70.2274129997,-44.7309375]},"properties":{"observation_id":"254060286","taxon_id":"806760","scientific_name":"Calceolaria polyrhiza","common_name":"","rank":"species","observed_on":"2024-12-03","created_at":"2024-12-03T22:31:55-03:00","quality_grade":"research","place_guess":"Río Senguer, Chubut, Argentina","uri":"https://www.inaturalist.org/observations/254060286","user_login":"cesar383","photo_url":"https://inaturalist-open-data.s3.amazonaws.com/photos/454991709/medium.jpg"}},{"type":"Feature","geometry":{"type":"Point","coordinates":[-70.20823,-44.747131]},"properties":{"observation_id":"143797663","taxon_id":"806760","scientific_name":"Calceolaria polyrhiza","common_name":"","rank":"species","observed_on":"2014-11-18","created_at":"2022-12-06T12:14:13-03:00","quality_grade":"research","place_guess":"Río Senguer, Chubut, Argentina","uri":"https://www.inaturalist.org/observations/143797663","user_login":"aliciasersic","photo_url":"https://static.inaturalist.org/photos/246679317/medium.jpg"}},{"type":"Feature","geometry":{"type":"Point","coordinates":[-70.367606638,-44.5929033972]},"properties":{"observation_id":"257308496","taxon_id":"129588","scientific_name":"Maihuenia patagonica","common_name":"Chupasangre","rank":"species","observed_on":"2024-11-25","created_at":"2025-01-04T00:24:43-03:00","quality_grade":"research","place_guess":"Tehuelches Department, Chubut Province, Argentina","uri":"https://www.inaturalist.org/observations/257308496","user_login":"jeffbisbee","photo_url":"https://inaturalist-open-data.s3.amazonaws.com/photos/461555195/medium.jpeg"}},{"type":"Feature","geometry":{"type":"Point","coordinates":[-70.0848221667,-44.9212883333]},"properties":{"observation_id":"198619855","taxon_id":"129588","scientific_name":"Maihuenia patagonica","common_name":"Chupasangre","rank":"species","observed_on":"2024-01-11","created_at":"2024-02-07T00:05:14-03:00","quality_grade":"research","place_guess":"Ruta Nacional 40, Chubut, AR","uri":"https://www.inaturalist.org/observations/198619855","user_login":"elinor5174","photo_url":"https://static.inaturalist.org/photos/350114863/medium.jpg"}},{"type":"Feature","geometry":{"type":"Point","coordinates":[-70.6533716667,-44.6881133333]},"properties":{"observation_id":"146172840","taxon_id":"129588","scientific_name":"Maihuenia patagonica","common_name":"Chupasangre","rank":"species","observed_on":"2023-01-07","created_at":"2023-01-08T22:57:36-03:00","quality_grade":"research","place_guess":"Ruta Provincial 20, Chubut, AR","uri":"https://www.inaturalist.org/observations/146172840","user_login":"nicholasrocha","photo_url":"https://inaturalist-open-data.s3.amazonaws.com/photos/251247353/medium.jpg"}},{"type":"Feature","geometry":{"type":"Point","coordinates":[-70.6533366667,-44.6881366667]},"properties":{"observation_id":"146172801","taxon_id":"129588","scientific_name":"Maihuenia patagonica","common_name":"Chupasangre","rank":"species","observed_on":"2023-01-07","created_at":"2023-01-08T22:56:51-03:00","quality_grade":"research","place_guess":"Ruta Provincial 20, Chubut, AR","uri":"https://www.inaturalist.org/observations/146172801","user_login":"nicholasrocha","photo_url":"https://inaturalist-open-data.s3.amazonaws.com/photos/251247224/medium.jpg"}},{"type":"Feature","geometry":{"type":"Point","coordinates":[-70.6533966667,-44.6881833333]},"properties":{"observation_id":"146113723","taxon_id":"129588","scientific_name":"Maihuenia patagonica","common_name":"Chupasangre","rank":"species","observed_on":"2023-01-07","created_at":"2023-01-08T08:57:47-03:00","quality_grade":"research","place_guess":"Ruta Provincial 20, Chubut, AR","uri":"https://www.inaturalist.org/observations/146113723","user_login":"dylan_sheng","photo_url":"https://inaturalist-open-data.s3.amazonaws.com/photos/251135038/medium.jpg"}},{"type":"Feature","geometry":{"type":"Point","coordinates":[-70.084568,-44.921878]},"properties":{"observation_id":"389621480","taxon_id":"447991","scientific_name":"Senecio filaginoides","common_name":"","rank":"species","observed_on":"2025-01-10","created_at":"2026-08-09T08:35:12-03:00","quality_grade":"research","place_guess":"Río Senguer Department, Chubut Province, Argentina","uri":"https://www.inaturalist.org/observations/389621480","user_login":"justinscholten","photo_url":"https://inaturalist-open-data.s3.amazonaws.com/photos/713569903/medium.jpg"}},{"type":"Feature","geometry":{"type":"Point","coordinates":[-70.1979372354,-44.7642339208]},"properties":{"observation_id":"257551380","taxon_id":"855528","scientific_name":"Pinnasa bergii","common_name":"","rank":"species","observed_on":"2024-11-25","created_at":"2025-01-06T01:01:31-03:00","quality_grade":"research","place_guess":"Río Senguer Department, Chubut Province, Argentina","uri":"https://www.inaturalist.org/observations/257551380","user_login":"jeffbisbee","photo_url":"https://inaturalist-open-data.s3.amazonaws.com/photos/462046174/medium.jpeg"}},{"type":"Feature","geometry":{"type":"Point","coordinates":[-70.09094,-44.91632]},"properties":{"observation_id":"71099124","taxon_id":"855528","scientific_name":"Pinnasa bergii","common_name":"","rank":"species","observed_on":"2018-01-09","created_at":"2021-03-12T20:03:03-05:00","quality_grade":"research","place_guess":"Río Senguer Department, Chubut Province, Argentina","uri":"https://www.inaturalist.org/observations/71099124","user_login":"rosemaryglos","photo_url":"https://inaturalist-open-data.s3.amazonaws.com/photos/115700337/medium.jpeg"}},{"type":"Feature","geometry":{"type":"Point","coordinates":[-70.084797,-44.921318]},"properties":{"observation_id":"389708877","taxon_id":"78618","scientific_name":"Plantago patagonica","common_name":"Woolly Plantain","rank":"species","observed_on":"2024-01-11","created_at":"2026-08-09T13:48:02-03:00","quality_grade":"research","place_guess":"Río Senguer Department, Chubut Province, Argentina","uri":"https://www.inaturalist.org/observations/389708877","user_login":"justinscholten","photo_url":"https://inaturalist-open-data.s3.amazonaws.com/photos/713867878/medium.jpg"}},{"type":"Feature","geometry":{"type":"Point","coordinates":[-70.3947120276,-44.2758837216]},"properties":{"observation_id":"257306982","taxon_id":"624415","scientific_name":"Hypochaeris incana","common_name":"","rank":"species","observed_on":"2024-11-25","created_at":"2025-01-04T00:07:31-03:00","quality_grade":"research","place_guess":"Tehuelches Department, Chubut Province, Argentina","uri":"https://www.inaturalist.org/observations/257306982","user_login":"jeffbisbee","photo_url":"https://inaturalist-open-data.s3.amazonaws.com/photos/461552437/medium.jpeg"}},{"type":"Feature","geometry":{"type":"Point","coordinates":[-70.2269479997,-44.7311423]},"properties":{"observation_id":"254059322","taxon_id":"791357","scientific_name":"Adesmia corymbosa","common_name":"","rank":"species","observed_on":"2024-12-03","created_at":"2024-12-03T22:19:56-03:00","quality_grade":"research","place_guess":"Rió Senguer, Chubut, Argentina","uri":"https://www.inaturalist.org/observations/254059322","user_login":"cesar383","photo_url":"https://inaturalist-open-data.s3.amazonaws.com/photos/454989581/medium.jpg"}},{"type":"Feature","geometry":{"type":"Point","coordinates":[-70.2693235889,-44.6932216164]},"properties":{"observation_id":"257290025","taxon_id":"791357","scientific_name":"Adesmia corymbosa","common_name":"","rank":"species","observed_on":"2024-11-25","created_at":"2025-01-03T20:50:56-03:00","quality_grade":"research","place_guess":"Río Senguer Department, Chubut Province, Argentina","uri":"https://www.inaturalist.org/observations/257290025","user_login":"jeffbisbee","photo_url":"https://inaturalist-open-data.s3.amazonaws.com/photos/461516732/medium.jpeg"}},{"type":"Feature","geometry":{"type":"Point","coordinates":[-70.3951260994,-44.2748672223]},"properties":{"observation_id":"257306611","taxon_id":"801351","scientific_name":"Nassauvia glomerulosa","common_name":"","rank":"species","observed_on":"2024-11-25","created_at":"2025-01-04T00:04:36-03:00","quality_grade":"research","place_guess":"Tehuelches Department, Chubut Province, Argentina","uri":"https://www.inaturalist.org/observations/257306611","user_login":"jeffbisbee","photo_url":"https://inaturalist-open-data.s3.amazonaws.com/photos/461551860/medium.jpeg"}},{"type":"Feature","geometry":{"type":"Point","coordinates":[-70.65332,-44.688122]},"properties":{"observation_id":"147777000","taxon_id":"135478","scientific_name":"Ephedra frustillata","common_name":"Patagonian Ephedra","rank":"species","observed_on":"2023-01-07","created_at":"2023-01-31T15:20:32-03:00","quality_grade":"research","place_guess":"Río Senguer Department, Chubut Province, Argentina","uri":"https://www.inaturalist.org/observations/147777000","user_login":"dylan_sheng","photo_url":"https://inaturalist-open-data.s3.amazonaws.com/photos/254345252/medium.jpg"}},{"type":"Feature","geometry":{"type":"Point","coordinates":[-70.526339,-44.472209]},"properties":{"observation_id":"36494936","taxon_id":"135478","scientific_name":"Ephedra frustillata","common_name":"Patagonian Ephedra","rank":"species","observed_on":"2014-01-11","created_at":"2019-12-09T02:11:33-06:00","quality_grade":"research","place_guess":"Tehuelches Department, Chubut Province, Argentina","uri":"https://www.inaturalist.org/observations/36494936","user_login":"graham_montgomery","photo_url":"https://static.inaturalist.org/photos/57695949/medium.jpeg"}},{"type":"Feature","geometry":{"type":"Point","coordinates":[-70.194575975,-44.7709220845]},"properties":{"observation_id":"257550148","taxon_id":"890959","scientific_name":"Adesmia villosa","common_name":"","rank":"species","observed_on":"2024-11-25","created_at":"2025-01-06T00:44:46-03:00","quality_grade":"research","place_guess":"Río Senguer Department, Chubut Province, Argentina","uri":"https://www.inaturalist.org/observations/257550148","user_login":"jeffbisbee","photo_url":"https://inaturalist-open-data.s3.amazonaws.com/photos/462043232/medium.jpeg"}},{"type":"Feature","geometry":{"type":"Point","coordinates":[-70.3346018527,-44.6281012592]},"properties":{"observation_id":"257309855","taxon_id":"890959","scientific_name":"Adesmia villosa","common_name":"","rank":"species","observed_on":"2024-11-25","created_at":"2025-01-04T00:46:34-03:00","quality_grade":"research","place_guess":"Tehuelches Department, Chubut Province, Argentina","uri":"https://www.inaturalist.org/observations/257309855","user_login":"jeffbisbee","photo_url":"https://inaturalist-open-data.s3.amazonaws.com/photos/461557726/medium.jpeg"}},{"type":"Feature","geometry":{"type":"Point","coordinates":[-70.0465216922,-44.9822533069]},"properties":{"observation_id":"257292757","taxon_id":"867446","scientific_name":"Mulguraea ligustrina","common_name":"","rank":"species","observed_on":"2024-11-25","created_at":"2025-01-03T21:27:33-03:00","quality_grade":"research","place_guess":"Río Senguer Department, Chubut Province, Argentina","uri":"https://www.inaturalist.org/observations/257292757","user_login":"jeffbisbee","photo_url":"https://inaturalist-open-data.s3.amazonaws.com/photos/461522837/medium.jpeg"}},{"type":"Feature","geometry":{"type":"Point","coordinates":[-70.351705,-44.941025]},"properties":{"observation_id":"389628523","taxon_id":"709842","scientific_name":"Blumenbachia dissecta","common_name":"","rank":"species","observed_on":"2025-01-07","created_at":"2026-08-09T09:08:21-03:00","quality_grade":"research","place_guess":"Río Senguer Department, Chubut Province, Argentina","uri":"https://www.inaturalist.org/observations/389628523","user_login":"justinscholten","photo_url":"https://inaturalist-open-data.s3.amazonaws.com/photos/713713307/medium.jpg"}},{"type":"Feature","geometry":{"type":"Point","coordinates":[-70.351692,-44.941042]},"properties":{"observation_id":"389628522","taxon_id":"709842","scientific_name":"Blumenbachia dissecta","common_name":"","rank":"species","observed_on":"2025-01-07","created_at":"2026-08-09T09:08:21-03:00","quality_grade":"research","place_guess":"Río Senguer Department, Chubut Province, Argentina","uri":"https://www.inaturalist.org/observations/389628522","user_login":"justinscholten","photo_url":"https://inaturalist-open-data.s3.amazonaws.com/photos/713713065/medium.jpg"}},{"type":"Feature","geometry":{"type":"Point","coordinates":[-70.351692,-44.941042]},"properties":{"observation_id":"389628520","taxon_id":"709842","scientific_name":"Blumenbachia dissecta","common_name":"","rank":"species","observed_on":"2025-01-07","created_at":"2026-08-09T09:08:21-03:00","quality_grade":"research","place_guess":"Río Senguer Department, Chubut Province, Argentina","uri":"https://www.inaturalist.org/observations/389628520","user_login":"justinscholten","photo_url":"https://inaturalist-open-data.s3.amazonaws.com/photos/713713031/medium.jpg"}},{"type":"Feature","geometry":{"type":"Point","coordinates":[-70.351692,-44.941043]},"properties":{"observation_id":"389628518","taxon_id":"709842","scientific_name":"Blumenbachia dissecta","common_name":"","rank":"species","observed_on":"2025-01-07","created_at":"2026-08-09T09:08:20-03:00","quality_grade":"research","place_guess":"Río Senguer Department, Chubut Province, Argentina","uri":"https://www.inaturalist.org/observations/389628518","user_login":"justinscholten","photo_url":"https://inaturalist-open-data.s3.amazonaws.com/photos/713712872/medium.jpg"}},{"type":"Feature","geometry":{"type":"Point","coordinates":[-70.351693,-44.941043]},"properties":{"observation_id":"389621863","taxon_id":"709842","scientific_name":"Blumenbachia dissecta","common_name":"","rank":"species","observed_on":"2025-01-07","created_at":"2026-08-09T08:36:23-03:00","quality_grade":"research","place_guess":"Río Senguer Department, Chubut Province, Argentina","uri":"https://www.inaturalist.org/observations/389621863","user_login":"justinscholten","photo_url":"https://inaturalist-open-data.s3.amazonaws.com/photos/713587209/medium.jpg"}},{"type":"Feature","geometry":{"type":"Point","coordinates":[-70.0881126367,-44.9351247157]},"properties":{"observation_id":"389708900","taxon_id":"442808","scientific_name":"Pterocactus hickenii","common_name":"","rank":"species","observed_on":"2024-01-11","created_at":"2026-08-09T13:48:05-03:00","quality_grade":"research","place_guess":"Rió Senguer, AR-CH, AR","uri":"https://www.inaturalist.org/observations/389708900","user_login":"justinscholten","photo_url":"https://inaturalist-open-data.s3.amazonaws.com/photos/713869693/medium.jpg"}},{"type":"Feature","geometry":{"type":"Point","coordinates":[-70.0063567595,-44.9724373697]},"properties":{"observation_id":"389708898","taxon_id":"442808","scientific_name":"Pterocactus hickenii","common_name":"","rank":"species","observed_on":"2024-01-11","created_at":"2026-08-09T13:48:05-03:00","quality_grade":"research","place_guess":"Rió Senguer, AR-CH, AR","uri":"https://www.inaturalist.org/observations/389708898","user_login":"justinscholten","photo_url":"https://inaturalist-open-data.s3.amazonaws.com/photos/713869347/medium.jpg"}},{"type":"Feature","geometry":{"type":"Point","coordinates":[-70.1942003911,-44.8573394348]},"properties":{"observation_id":"389708897","taxon_id":"442808","scientific_name":"Pterocactus hickenii","common_name":"","rank":"species","observed_on":"2024-01-11","created_at":"2026-08-09T13:48:05-03:00","quality_grade":"research","place_guess":"Rió Senguer, AR-CH, AR","uri":"https://www.inaturalist.org/observations/389708897","user_login":"justinscholten","photo_url":"https://inaturalist-open-data.s3.amazonaws.com/photos/713869415/medium.jpg"}},{"type":"Feature","geometry":{"type":"Point","coordinates":[-70.113884353,-44.9879357014]},"properties":{"observation_id":"389708894","taxon_id":"442808","scientific_name":"Pterocactus hickenii","common_name":"","rank":"species","observed_on":"2024-01-11","created_at":"2026-08-09T13:48:04-03:00","quality_grade":"research","place_guess":"Rió Senguer, AR-CH, AR","uri":"https://www.inaturalist.org/observations/389708894","user_login":"justinscholten","photo_url":"https://inaturalist-open-data.s3.amazonaws.com/photos/713869341/medium.jpg"}},{"type":"Feature","geometry":{"type":"Point","coordinates":[-70.653855,-44.6877716667]},"properties":{"observation_id":"147211427","taxon_id":"1318829","scientific_name":"Notopappus prunelloides","common_name":"","rank":"species","observed_on":"2023-01-07","created_at":"2023-01-23T16:37:05-03:00","quality_grade":"research","place_guess":"Ruta Provincial 20, Chubut, AR","uri":"https://www.inaturalist.org/observations/147211427","user_login":"nicholasrocha","photo_url":"https://inaturalist-open-data.s3.amazonaws.com/photos/253269940/medium.jpg"}},{"type":"Feature","geometry":{"type":"Point","coordinates":[-70.2273114997,-44.7309272997]},"properties":{"observation_id":"254059044","taxon_id":"1005250","scientific_name":"Adesmia volckmannii","common_name":"","rank":"species","observed_on":"2024-12-03","created_at":"2024-12-03T22:15:02-03:00","quality_grade":"research","place_guess":"Río Senguer, Chubut, Argentina","uri":"https://www.inaturalist.org/observations/254059044","user_login":"cesar383","photo_url":"https://inaturalist-open-data.s3.amazonaws.com/photos/454989096/medium.jpg"}}]}