{"type":"FeatureCollection","features":[{"type":"Feature","geometry":{"type":"Point","coordinates":[-68.06227,-45.76153]},"properties":{"observation_id":"70636474","taxon_id":"823355","scientific_name":"Adesmia boronioides","common_name":"","rank":"species","observed_on":"2018-01-06","created_at":"2021-03-05T19:39:04-05:00","quality_grade":"research","place_guess":"Escalante Department, Chubut Province, Argentina","uri":"https://www.inaturalist.org/observations/70636474","user_login":"rosemaryglos","photo_url":"https://inaturalist-open-data.s3.amazonaws.com/photos/114868385/medium.jpeg"}},{"type":"Feature","geometry":{"type":"Point","coordinates":[-68.7650533333,-45.752025]},"properties":{"observation_id":"358948988","taxon_id":"489760","scientific_name":"Grindelia chiloensis","common_name":"Shrubby Gumweed","rank":"species","observed_on":"2023-01-12","created_at":"2026-05-06T13:00:45-03:00","quality_grade":"research","place_guess":"Ruta Nacional 26, Chubut, AR","uri":"https://www.inaturalist.org/observations/358948988","user_login":"dylan_sheng","photo_url":"https://inaturalist-open-data.s3.amazonaws.com/photos/654861098/medium.jpg"}},{"type":"Feature","geometry":{"type":"Point","coordinates":[-68.75045,-45.78675]},"properties":{"observation_id":"146407268","taxon_id":"129588","scientific_name":"Maihuenia patagonica","common_name":"Chupasangre","rank":"species","observed_on":"2023-01-12","created_at":"2023-01-12T13:31:59-03:00","quality_grade":"research","place_guess":"Ruta Provincial 20, Chubut, AR","uri":"https://www.inaturalist.org/observations/146407268","user_login":"dylan_sheng","photo_url":"https://inaturalist-open-data.s3.amazonaws.com/photos/251703796/medium.jpg"}},{"type":"Feature","geometry":{"type":"Point","coordinates":[-68.4487529727,-45.7481577194]},"properties":{"observation_id":"108505289","taxon_id":"855528","scientific_name":"Pinnasa bergii","common_name":"","rank":"species","observed_on":"2019-12-13","created_at":"2022-03-13T08:47:13-05:00","quality_grade":"research","place_guess":"Sarmiento, Chubut, Argentina","uri":"https://www.inaturalist.org/observations/108505289","user_login":"danplant","photo_url":"https://inaturalist-open-data.s3.amazonaws.com/photos/182697790/medium.jpeg"}},{"type":"Feature","geometry":{"type":"Point","coordinates":[-68.3383701142,-45.6633904853]},"properties":{"observation_id":"264016506","taxon_id":"447996","scientific_name":"Adesmia pinifolia","common_name":"","rank":"species","observed_on":"2018-12-20","created_at":"2025-03-05T18:04:31-03:00","quality_grade":"research","place_guess":"Escalante, Chubut, Argentina","uri":"https://www.inaturalist.org/observations/264016506","user_login":"marcosmm","photo_url":"https://static.inaturalist.org/photos/474396589/medium.jpeg"}},{"type":"Feature","geometry":{"type":"Point","coordinates":[-68.299064252,-45.7539072293]},"properties":{"observation_id":"108505295","taxon_id":"804859","scientific_name":"Sisyrinchium arenarium","common_name":"","rank":"species","observed_on":"2019-12-13","created_at":"2022-03-13T08:47:15-05:00","quality_grade":"research","place_guess":"Cerro Dragón, Chubut, Argentina","uri":"https://www.inaturalist.org/observations/108505295","user_login":"danplant","photo_url":"https://inaturalist-open-data.s3.amazonaws.com/photos/182698051/medium.jpeg"}},{"type":"Feature","geometry":{"type":"Point","coordinates":[-68.0620112585,-45.7615981409]},"properties":{"observation_id":"70636478","taxon_id":"709842","scientific_name":"Blumenbachia dissecta","common_name":"","rank":"species","observed_on":"2018-01-06","created_at":"2021-03-05T19:39:05-05:00","quality_grade":"research","place_guess":"Escalante Department, Chubut Province, Argentina","uri":"https://www.inaturalist.org/observations/70636478","user_login":"rosemaryglos","photo_url":"https://inaturalist-open-data.s3.amazonaws.com/photos/114868555/medium.jpeg"}},{"type":"Feature","geometry":{"type":"Point","coordinates":[-68.7036286383,-45.6575684926]},"properties":{"observation_id":"182540329","taxon_id":"442808","scientific_name":"Pterocactus hickenii","common_name":"","rank":"species","observed_on":"2023-01-12","created_at":"2023-09-09T18:46:29-03:00","quality_grade":"research","place_guess":"Sarmiento, AR-CH, AR","uri":"https://www.inaturalist.org/observations/182540329","user_login":"jonathanchai","photo_url":"https://inaturalist-open-data.s3.amazonaws.com/photos/318286625/medium.jpg"}},{"type":"Feature","geometry":{"type":"Point","coordinates":[-68.764855,-45.752455]},"properties":{"observation_id":"359414156","taxon_id":"974990","scientific_name":"Pleurophora patagonica","common_name":"","rank":"species","observed_on":"2023-01-12","created_at":"2026-05-08T00:42:19-03:00","quality_grade":"research","place_guess":"Ruta Nacional 26, Chubut, AR","uri":"https://www.inaturalist.org/observations/359414156","user_login":"dylan_sheng","photo_url":"https://inaturalist-open-data.s3.amazonaws.com/photos/655760747/medium.jpg"}},{"type":"Feature","geometry":{"type":"Point","coordinates":[-68.764855,-45.752455]},"properties":{"observation_id":"146663401","taxon_id":"974990","scientific_name":"Pleurophora patagonica","common_name":"","rank":"species","observed_on":"2023-01-12","created_at":"2023-01-16T00:04:48-03:00","quality_grade":"research","place_guess":"Ruta Nacional 26, Chubut, AR","uri":"https://www.inaturalist.org/observations/146663401","user_login":"dylan_sheng","photo_url":"https://inaturalist-open-data.s3.amazonaws.com/photos/252205668/medium.jpg"}},{"type":"Feature","geometry":{"type":"Point","coordinates":[-68.6341472598,-45.7807304441]},"properties":{"observation_id":"108505292","taxon_id":"974990","scientific_name":"Pleurophora patagonica","common_name":"","rank":"species","observed_on":"2019-12-13","created_at":"2022-03-13T08:47:14-05:00","quality_grade":"research","place_guess":"Sarmiento, Chubut, Argentina","uri":"https://www.inaturalist.org/observations/108505292","user_login":"danplant","photo_url":"https://inaturalist-open-data.s3.amazonaws.com/photos/182697948/medium.jpeg"}},{"type":"Feature","geometry":{"type":"Point","coordinates":[-68.4103008243,-45.7356984162]},"properties":{"observation_id":"108505287","taxon_id":"974990","scientific_name":"Pleurophora patagonica","common_name":"","rank":"species","observed_on":"2019-12-13","created_at":"2022-03-13T08:47:13-05:00","quality_grade":"research","place_guess":"Sarmiento, Chubut, Argentina","uri":"https://www.inaturalist.org/observations/108505287","user_login":"danplant","photo_url":"https://inaturalist-open-data.s3.amazonaws.com/photos/182697926/medium.jpeg"}}]}