{"type":"FeatureCollection","features":[{"type":"Feature","geometry":{"type":"Point","coordinates":[-68.1355833333,-44.0076138833]},"properties":{"observation_id":"400054257","taxon_id":"1229092","scientific_name":"Maihueniopsis hickenii","common_name":"","rank":"species","observed_on":"2026-09-12","created_at":"2026-09-13T20:50:29-03:00","quality_grade":"research","place_guess":"Chubut, AR","uri":"https://www.inaturalist.org/observations/400054257","user_login":"caleb914","photo_url":"https://static.inaturalist.org/photos/734048491/medium.jpg"}}]}