{"type":"FeatureCollection","features":[{"type":"Feature","geometry":{"type":"Point","coordinates":[-66.6952216267,-48.2327045598]},"properties":{"observation_id":"263536878","taxon_id":"569081","scientific_name":"Azorella monantha","common_name":"Tufted azorella","rank":"species","observed_on":"2025-02-08","created_at":"2025-03-01T18:00:23-03:00","quality_grade":"research","place_guess":"Deseado, Santa Cruz, Argentina","uri":"https://www.inaturalist.org/observations/263536878","user_login":"hhulsberg","photo_url":"https://inaturalist-open-data.s3.amazonaws.com/photos/473454892/medium.jpeg"}},{"type":"Feature","geometry":{"type":"Point","coordinates":[-66.9458660485,-48.0361885974]},"properties":{"observation_id":"395216689","taxon_id":"129588","scientific_name":"Maihuenia patagonica","common_name":"Chupasangre","rank":"species","observed_on":"2026-08-26","created_at":"2026-08-28T11:33:40-03:00","quality_grade":"research","place_guess":"Santa Cruz, AR","uri":"https://www.inaturalist.org/observations/395216689","user_login":"juanorozcoo","photo_url":"https://inaturalist-open-data.s3.amazonaws.com/photos/724643772/medium.jpg"}},{"type":"Feature","geometry":{"type":"Point","coordinates":[-66.766593138,-48.1209953398]},"properties":{"observation_id":"394530216","taxon_id":"129588","scientific_name":"Maihuenia patagonica","common_name":"Chupasangre","rank":"species","observed_on":"2026-08-25","created_at":"2026-08-25T19:37:59-03:00","quality_grade":"research","place_guess":"Deseado, AR-SC, AR","uri":"https://www.inaturalist.org/observations/394530216","user_login":"juanorozcoo","photo_url":"https://inaturalist-open-data.s3.amazonaws.com/photos/723289856/medium.jpg"}},{"type":"Feature","geometry":{"type":"Point","coordinates":[-66.9816000234,-48.0963804748]},"properties":{"observation_id":"395216604","taxon_id":"440126","scientific_name":"Maihueniopsis darwinii","common_name":"","rank":"species","observed_on":"2026-08-26","created_at":"2026-08-28T11:33:08-03:00","quality_grade":"research","place_guess":"Deseado, AR-SC, AR","uri":"https://www.inaturalist.org/observations/395216604","user_login":"juanorozcoo","photo_url":"https://inaturalist-open-data.s3.amazonaws.com/photos/724643582/medium.jpg"}}]}