{"type":"FeatureCollection","features":[{"type":"Feature","geometry":{"type":"Point","coordinates":[-67.1182783997,-43.686208]},"properties":{"observation_id":"195884894","taxon_id":"797147","scientific_name":"Azorella prolifera","common_name":"Mother-in-law Cushion","rank":"species","observed_on":"2024-01-05","created_at":"2024-01-05T22:40:34-03:00","quality_grade":"research","place_guess":"Mártires, Chubut, Argentina","uri":"https://www.inaturalist.org/observations/195884894","user_login":"el-naturalista","photo_url":"https://inaturalist-open-data.s3.amazonaws.com/photos/344729228/medium.jpg"}},{"type":"Feature","geometry":{"type":"Point","coordinates":[-67.2685866667,-43.72775]},"properties":{"observation_id":"260933228","taxon_id":"498893","scientific_name":"Larrea nitida","common_name":"","rank":"species","observed_on":"2025-02-07","created_at":"2025-02-07T18:39:10-03:00","quality_grade":"research","place_guess":"Chubut, AR","uri":"https://www.inaturalist.org/observations/260933228","user_login":"raul_larsen","photo_url":"https://inaturalist-open-data.s3.amazonaws.com/photos/468840249/medium.jpg"}},{"type":"Feature","geometry":{"type":"Point","coordinates":[-67.30629667,-43.72743667]},"properties":{"observation_id":"197346398","taxon_id":"498893","scientific_name":"Larrea nitida","common_name":"","rank":"species","observed_on":"2024-01-22","created_at":"2024-01-22T20:40:03-03:00","quality_grade":"research","place_guess":"Mártires, AR-CH, AR","uri":"https://www.inaturalist.org/observations/197346398","user_login":"alfanova","photo_url":"https://inaturalist-open-data.s3.amazonaws.com/photos/347556261/medium.jpg"}},{"type":"Feature","geometry":{"type":"Point","coordinates":[-67.7962492,-43.8394958]},"properties":{"observation_id":"197327549","taxon_id":"498893","scientific_name":"Larrea nitida","common_name":"","rank":"species","observed_on":"2024-01-10","created_at":"2024-01-22T15:52:19-03:00","quality_grade":"research","place_guess":"Paso de Indios, Chubut, Argentina","uri":"https://www.inaturalist.org/observations/197327549","user_login":"leandrobareiro","photo_url":"https://inaturalist-open-data.s3.amazonaws.com/photos/347519123/medium.jpeg"}},{"type":"Feature","geometry":{"type":"Point","coordinates":[-67.29003,-43.710338]},"properties":{"observation_id":"389713896","taxon_id":"498893","scientific_name":"Larrea nitida","common_name":"","rank":"species","observed_on":"2024-01-06","created_at":"2026-08-09T14:03:13-03:00","quality_grade":"research","place_guess":"Mártires Department, Chubut Province, Argentina","uri":"https://www.inaturalist.org/observations/389713896","user_login":"justinscholten","photo_url":"https://inaturalist-open-data.s3.amazonaws.com/photos/713875646/medium.jpg"}},{"type":"Feature","geometry":{"type":"Point","coordinates":[-67.2886950349,-43.6975574046]},"properties":{"observation_id":"40613086","taxon_id":"498893","scientific_name":"Larrea nitida","common_name":"","rank":"species","observed_on":"2019-11-26","created_at":"2020-03-23T21:59:53-02:00","quality_grade":"research","place_guess":"Mártires, Chubut, Argentina","uri":"https://www.inaturalist.org/observations/40613086","user_login":"leonardobergamini","photo_url":"https://inaturalist-open-data.s3.amazonaws.com/photos/64370328/medium.jpeg"}},{"type":"Feature","geometry":{"type":"Point","coordinates":[-67.679672,-43.809072]},"properties":{"observation_id":"389694518","taxon_id":"1555395","scientific_name":"Troncosoa seriphioides","common_name":"","rank":"species","observed_on":"2024-01-06","created_at":"2026-08-09T13:04:18-03:00","quality_grade":"research","place_guess":"Mártires Department, Chubut Province, Argentina","uri":"https://www.inaturalist.org/observations/389694518","user_login":"justinscholten","photo_url":"https://inaturalist-open-data.s3.amazonaws.com/photos/713836629/medium.jpg"}},{"type":"Feature","geometry":{"type":"Point","coordinates":[-67.67957,-43.809153]},"properties":{"observation_id":"389694542","taxon_id":"429151","scientific_name":"Bougainvillea spinosa","common_name":"","rank":"species","observed_on":"2024-01-06","created_at":"2026-08-09T13:04:21-03:00","quality_grade":"research","place_guess":"Mártires Department, Chubut Province, Argentina","uri":"https://www.inaturalist.org/observations/389694542","user_login":"justinscholten","photo_url":"https://inaturalist-open-data.s3.amazonaws.com/photos/713837379/medium.jpg"}},{"type":"Feature","geometry":{"type":"Point","coordinates":[-67.679572,-43.809162]},"properties":{"observation_id":"389694535","taxon_id":"429151","scientific_name":"Bougainvillea spinosa","common_name":"","rank":"species","observed_on":"2024-01-06","created_at":"2026-08-09T13:04:20-03:00","quality_grade":"research","place_guess":"Mártires Department, Chubut Province, Argentina","uri":"https://www.inaturalist.org/observations/389694535","user_login":"justinscholten","photo_url":"https://inaturalist-open-data.s3.amazonaws.com/photos/713837263/medium.jpg"}},{"type":"Feature","geometry":{"type":"Point","coordinates":[-67.679585,-43.809112]},"properties":{"observation_id":"389694545","taxon_id":"429151","scientific_name":"Bougainvillea spinosa","common_name":"","rank":"species","observed_on":"2024-01-06","created_at":"2026-08-09T13:04:21-03:00","quality_grade":"research","place_guess":"Mártires Department, Chubut Province, Argentina","uri":"https://www.inaturalist.org/observations/389694545","user_login":"justinscholten","photo_url":"https://inaturalist-open-data.s3.amazonaws.com/photos/713837781/medium.jpg"}},{"type":"Feature","geometry":{"type":"Point","coordinates":[-67.679572,-43.809153]},"properties":{"observation_id":"389694541","taxon_id":"429151","scientific_name":"Bougainvillea spinosa","common_name":"","rank":"species","observed_on":"2024-01-06","created_at":"2026-08-09T13:04:21-03:00","quality_grade":"research","place_guess":"Mártires Department, Chubut Province, Argentina","uri":"https://www.inaturalist.org/observations/389694541","user_login":"justinscholten","photo_url":"https://inaturalist-open-data.s3.amazonaws.com/photos/713837686/medium.jpg"}},{"type":"Feature","geometry":{"type":"Point","coordinates":[-67.2975760467,-43.7790955108]},"properties":{"observation_id":"389621652","taxon_id":"129588","scientific_name":"Maihuenia patagonica","common_name":"Chupasangre","rank":"species","observed_on":"2025-01-05","created_at":"2026-08-09T08:35:45-03:00","quality_grade":"research","place_guess":"Mártires, AR-CH, AR","uri":"https://www.inaturalist.org/observations/389621652","user_login":"justinscholten","photo_url":"https://inaturalist-open-data.s3.amazonaws.com/photos/713577816/medium.jpg"}},{"type":"Feature","geometry":{"type":"Point","coordinates":[-67.2835184355,-43.6730493994]},"properties":{"observation_id":"389621651","taxon_id":"129588","scientific_name":"Maihuenia patagonica","common_name":"Chupasangre","rank":"species","observed_on":"2025-01-05","created_at":"2026-08-09T08:35:45-03:00","quality_grade":"research","place_guess":"Mártires, AR-CH, AR","uri":"https://www.inaturalist.org/observations/389621651","user_login":"justinscholten","photo_url":"https://inaturalist-open-data.s3.amazonaws.com/photos/713577882/medium.jpg"}},{"type":"Feature","geometry":{"type":"Point","coordinates":[-67.6832013665,-43.8681950565]},"properties":{"observation_id":"389694613","taxon_id":"129588","scientific_name":"Maihuenia patagonica","common_name":"Chupasangre","rank":"species","observed_on":"2024-01-06","created_at":"2026-08-09T13:04:30-03:00","quality_grade":"research","place_guess":"Chubut, AR","uri":"https://www.inaturalist.org/observations/389694613","user_login":"justinscholten","photo_url":"https://inaturalist-open-data.s3.amazonaws.com/photos/713840758/medium.jpg"}},{"type":"Feature","geometry":{"type":"Point","coordinates":[-67.3736612817,-43.7218793264]},"properties":{"observation_id":"389694611","taxon_id":"129588","scientific_name":"Maihuenia patagonica","common_name":"Chupasangre","rank":"species","observed_on":"2024-01-06","created_at":"2026-08-09T13:04:29-03:00","quality_grade":"research","place_guess":"Mártires, AR-CH, AR","uri":"https://www.inaturalist.org/observations/389694611","user_login":"justinscholten","photo_url":"https://inaturalist-open-data.s3.amazonaws.com/photos/713840595/medium.jpg"}},{"type":"Feature","geometry":{"type":"Point","coordinates":[-67.2368622994,-43.6387614692]},"properties":{"observation_id":"389694604","taxon_id":"129588","scientific_name":"Maihuenia patagonica","common_name":"Chupasangre","rank":"species","observed_on":"2024-01-06","created_at":"2026-08-09T13:04:29-03:00","quality_grade":"research","place_guess":"Mártires, AR-CH, AR","uri":"https://www.inaturalist.org/observations/389694604","user_login":"justinscholten","photo_url":"https://inaturalist-open-data.s3.amazonaws.com/photos/713840042/medium.jpg"}},{"type":"Feature","geometry":{"type":"Point","coordinates":[-67.2202595482,-43.7937756692]},"properties":{"observation_id":"389694603","taxon_id":"129588","scientific_name":"Maihuenia patagonica","common_name":"Chupasangre","rank":"species","observed_on":"2024-01-06","created_at":"2026-08-09T13:04:29-03:00","quality_grade":"research","place_guess":"Mártires, AR-CH, AR","uri":"https://www.inaturalist.org/observations/389694603","user_login":"justinscholten","photo_url":"https://inaturalist-open-data.s3.amazonaws.com/photos/713840152/medium.jpg"}},{"type":"Feature","geometry":{"type":"Point","coordinates":[-67.29159,-43.710083]},"properties":{"observation_id":"389694585","taxon_id":"480386","scientific_name":"Junellia seriphioides","common_name":"","rank":"species","observed_on":"2024-01-06","created_at":"2026-08-09T13:04:27-03:00","quality_grade":"research","place_guess":"Mártires Department, Chubut Province, Argentina","uri":"https://www.inaturalist.org/observations/389694585","user_login":"justinscholten","photo_url":"https://inaturalist-open-data.s3.amazonaws.com/photos/713839547/medium.jpg"}},{"type":"Feature","geometry":{"type":"Point","coordinates":[-67.291593,-43.710052]},"properties":{"observation_id":"389694583","taxon_id":"480386","scientific_name":"Junellia seriphioides","common_name":"","rank":"species","observed_on":"2024-01-06","created_at":"2026-08-09T13:04:26-03:00","quality_grade":"research","place_guess":"Mártires Department, Chubut Province, Argentina","uri":"https://www.inaturalist.org/observations/389694583","user_login":"justinscholten","photo_url":"https://inaturalist-open-data.s3.amazonaws.com/photos/713839309/medium.jpg"}},{"type":"Feature","geometry":{"type":"Point","coordinates":[-67.2579998551,-43.7728927562]},"properties":{"observation_id":"389694620","taxon_id":"440126","scientific_name":"Maihueniopsis darwinii","common_name":"","rank":"species","observed_on":"2024-01-06","created_at":"2026-08-09T13:04:31-03:00","quality_grade":"research","place_guess":"Mártires, AR-CH, AR","uri":"https://www.inaturalist.org/observations/389694620","user_login":"justinscholten","photo_url":"https://inaturalist-open-data.s3.amazonaws.com/photos/713841290/medium.jpg"}},{"type":"Feature","geometry":{"type":"Point","coordinates":[-67.2464463401,-43.6748854962]},"properties":{"observation_id":"389694614","taxon_id":"440126","scientific_name":"Maihueniopsis darwinii","common_name":"","rank":"species","observed_on":"2024-01-06","created_at":"2026-08-09T13:04:30-03:00","quality_grade":"research","place_guess":"Mártires, AR-CH, AR","uri":"https://www.inaturalist.org/observations/389694614","user_login":"justinscholten","photo_url":"https://inaturalist-open-data.s3.amazonaws.com/photos/713840792/medium.jpg"}},{"type":"Feature","geometry":{"type":"Point","coordinates":[-67.295801145,-43.694969175]},"properties":{"observation_id":"389694615","taxon_id":"440126","scientific_name":"Maihueniopsis darwinii","common_name":"","rank":"species","observed_on":"2024-01-06","created_at":"2026-08-09T13:04:30-03:00","quality_grade":"research","place_guess":"Mártires, AR-CH, AR","uri":"https://www.inaturalist.org/observations/389694615","user_login":"justinscholten","photo_url":"https://inaturalist-open-data.s3.amazonaws.com/photos/713841093/medium.jpg"}},{"type":"Feature","geometry":{"type":"Point","coordinates":[-67.2917383333,-43.7094533333]},"properties":{"observation_id":"146093144","taxon_id":"440126","scientific_name":"Maihueniopsis darwinii","common_name":"","rank":"species","observed_on":"2023-01-05","created_at":"2023-01-08T01:07:52-03:00","quality_grade":"research","place_guess":"Las Plumas, Chubut, AR","uri":"https://www.inaturalist.org/observations/146093144","user_login":"nicholasrocha","photo_url":"https://inaturalist-open-data.s3.amazonaws.com/photos/251093972/medium.jpg"}},{"type":"Feature","geometry":{"type":"Point","coordinates":[-67.3830762879,-43.7367939565]},"properties":{"observation_id":"389621902","taxon_id":"437335","scientific_name":"Austrocactus bertinii","common_name":"","rank":"species","observed_on":"2025-01-05","created_at":"2026-08-09T08:36:30-03:00","quality_grade":"research","place_guess":"Mártires, AR-CH, AR","uri":"https://www.inaturalist.org/observations/389621902","user_login":"justinscholten","photo_url":"https://inaturalist-open-data.s3.amazonaws.com/photos/713588486/medium.jpg"}},{"type":"Feature","geometry":{"type":"Point","coordinates":[-67.3462030384,-43.687870026]},"properties":{"observation_id":"389621903","taxon_id":"437335","scientific_name":"Austrocactus bertinii","common_name":"","rank":"species","observed_on":"2025-01-05","created_at":"2026-08-09T08:36:30-03:00","quality_grade":"research","place_guess":"Mártires, AR-CH, AR","uri":"https://www.inaturalist.org/observations/389621903","user_login":"justinscholten","photo_url":"https://inaturalist-open-data.s3.amazonaws.com/photos/713588617/medium.jpg"}},{"type":"Feature","geometry":{"type":"Point","coordinates":[-67.3610426458,-43.6465784133]},"properties":{"observation_id":"389694527","taxon_id":"437335","scientific_name":"Austrocactus bertinii","common_name":"","rank":"species","observed_on":"2024-01-06","created_at":"2026-08-09T13:04:19-03:00","quality_grade":"research","place_guess":"Mártires, AR-CH, AR","uri":"https://www.inaturalist.org/observations/389694527","user_login":"justinscholten","photo_url":"https://inaturalist-open-data.s3.amazonaws.com/photos/713837208/medium.jpg"}},{"type":"Feature","geometry":{"type":"Point","coordinates":[-67.290943,-43.710038]},"properties":{"observation_id":"389694533","taxon_id":"437335","scientific_name":"Austrocactus bertinii","common_name":"","rank":"species","observed_on":"2024-01-06","created_at":"2026-08-09T13:04:20-03:00","quality_grade":"research","place_guess":"Mártires Department, Chubut Province, Argentina","uri":"https://www.inaturalist.org/observations/389694533","user_login":"justinscholten","photo_url":"https://inaturalist-open-data.s3.amazonaws.com/photos/713837691/medium.jpg"}},{"type":"Feature","geometry":{"type":"Point","coordinates":[-67.2622695271,-43.6936227831]},"properties":{"observation_id":"389694532","taxon_id":"437335","scientific_name":"Austrocactus bertinii","common_name":"","rank":"species","observed_on":"2024-01-06","created_at":"2026-08-09T13:04:20-03:00","quality_grade":"research","place_guess":"Mártires, AR-CH, AR","uri":"https://www.inaturalist.org/observations/389694532","user_login":"justinscholten","photo_url":"https://inaturalist-open-data.s3.amazonaws.com/photos/713837114/medium.jpg"}},{"type":"Feature","geometry":{"type":"Point","coordinates":[-67.2021250756,-43.7782069806]},"properties":{"observation_id":"389694528","taxon_id":"437335","scientific_name":"Austrocactus bertinii","common_name":"","rank":"species","observed_on":"2024-01-06","created_at":"2026-08-09T13:04:19-03:00","quality_grade":"research","place_guess":"Mártires, AR-CH, AR","uri":"https://www.inaturalist.org/observations/389694528","user_login":"justinscholten","photo_url":"https://inaturalist-open-data.s3.amazonaws.com/photos/713837151/medium.jpg"}},{"type":"Feature","geometry":{"type":"Point","coordinates":[-67.2539022188,-43.7418388418]},"properties":{"observation_id":"389694523","taxon_id":"437335","scientific_name":"Austrocactus bertinii","common_name":"","rank":"species","observed_on":"2024-01-06","created_at":"2026-08-09T13:04:19-03:00","quality_grade":"research","place_guess":"Mártires, AR-CH, AR","uri":"https://www.inaturalist.org/observations/389694523","user_login":"justinscholten","photo_url":"https://inaturalist-open-data.s3.amazonaws.com/photos/713837060/medium.jpg"}},{"type":"Feature","geometry":{"type":"Point","coordinates":[-67.2059590389,-43.6742028692]},"properties":{"observation_id":"389694521","taxon_id":"437335","scientific_name":"Austrocactus bertinii","common_name":"","rank":"species","observed_on":"2024-01-06","created_at":"2026-08-09T13:04:19-03:00","quality_grade":"research","place_guess":"Mártires, AR-CH, AR","uri":"https://www.inaturalist.org/observations/389694521","user_login":"justinscholten","photo_url":"https://inaturalist-open-data.s3.amazonaws.com/photos/713836714/medium.jpg"}},{"type":"Feature","geometry":{"type":"Point","coordinates":[-67.3117500159,-43.7287896116]},"properties":{"observation_id":"358931393","taxon_id":"437335","scientific_name":"Austrocactus bertinii","common_name":"","rank":"species","observed_on":"2023-01-05","created_at":"2026-05-06T11:58:28-03:00","quality_grade":"research","place_guess":"Chubut, AR","uri":"https://www.inaturalist.org/observations/358931393","user_login":"dylan_sheng","photo_url":"https://inaturalist-open-data.s3.amazonaws.com/photos/654832701/medium.jpg"}},{"type":"Feature","geometry":{"type":"Point","coordinates":[-67.2914116667,-43.71073]},"properties":{"observation_id":"146092729","taxon_id":"437335","scientific_name":"Austrocactus bertinii","common_name":"","rank":"species","observed_on":"2023-01-05","created_at":"2023-01-08T00:58:57-03:00","quality_grade":"research","place_guess":"Las Plumas, Chubut, AR","uri":"https://www.inaturalist.org/observations/146092729","user_login":"nicholasrocha","photo_url":"https://inaturalist-open-data.s3.amazonaws.com/photos/251093193/medium.jpg"}},{"type":"Feature","geometry":{"type":"Point","coordinates":[-67.291,-43.70988333]},"properties":{"observation_id":"37333949","taxon_id":"437335","scientific_name":"Austrocactus bertinii","common_name":"","rank":"species","observed_on":"2020-01-05","created_at":"2020-01-06T07:00:15-03:00","quality_grade":"research","place_guess":"Mártires, Mártires, Chubut, AR","uri":"https://www.inaturalist.org/observations/37333949","user_login":"jllodra2","photo_url":"https://static.inaturalist.org/photos/59165125/medium.jpg"}},{"type":"Feature","geometry":{"type":"Point","coordinates":[-67.29235,-43.7101883333]},"properties":{"observation_id":"146093218","taxon_id":"1229092","scientific_name":"Maihueniopsis hickenii","common_name":"","rank":"species","observed_on":"2023-01-05","created_at":"2023-01-08T01:09:50-03:00","quality_grade":"research","place_guess":"Las Plumas, Chubut, AR","uri":"https://www.inaturalist.org/observations/146093218","user_login":"nicholasrocha","photo_url":"https://inaturalist-open-data.s3.amazonaws.com/photos/251130922/medium.jpg"}},{"type":"Feature","geometry":{"type":"Point","coordinates":[-67.29203,-43.7101283333]},"properties":{"observation_id":"146093220","taxon_id":"1229092","scientific_name":"Maihueniopsis hickenii","common_name":"","rank":"species","observed_on":"2023-01-05","created_at":"2023-01-08T01:09:55-03:00","quality_grade":"research","place_guess":"Las Plumas, Chubut, AR","uri":"https://www.inaturalist.org/observations/146093220","user_login":"nicholasrocha","photo_url":"https://inaturalist-open-data.s3.amazonaws.com/photos/251131001/medium.jpg"}},{"type":"Feature","geometry":{"type":"Point","coordinates":[-67.291022,-43.709958]},"properties":{"observation_id":"389694599","taxon_id":"499544","scientific_name":"Larrea ameghinoi","common_name":"","rank":"species","observed_on":"2024-01-06","created_at":"2026-08-09T13:04:28-03:00","quality_grade":"research","place_guess":"Mártires Department, Chubut Province, Argentina","uri":"https://www.inaturalist.org/observations/389694599","user_login":"justinscholten","photo_url":"https://inaturalist-open-data.s3.amazonaws.com/photos/713840097/medium.jpg"}},{"type":"Feature","geometry":{"type":"Point","coordinates":[-67.291042,-43.709943]},"properties":{"observation_id":"389694594","taxon_id":"499544","scientific_name":"Larrea ameghinoi","common_name":"","rank":"species","observed_on":"2024-01-06","created_at":"2026-08-09T13:04:28-03:00","quality_grade":"research","place_guess":"Mártires Department, Chubut Province, Argentina","uri":"https://www.inaturalist.org/observations/389694594","user_login":"justinscholten","photo_url":"https://inaturalist-open-data.s3.amazonaws.com/photos/713839956/medium.jpg"}},{"type":"Feature","geometry":{"type":"Point","coordinates":[-67.290994781,-43.7087758538]},"properties":{"observation_id":"37321607","taxon_id":"499544","scientific_name":"Larrea ameghinoi","common_name":"","rank":"species","observed_on":"2020-01-05","created_at":"2020-01-05T22:18:30-03:00","quality_grade":"research","place_guess":"Mártires, Mártires, Chubut, AR","uri":"https://www.inaturalist.org/observations/37321607","user_login":"jllodra2","photo_url":"https://static.inaturalist.org/photos/59144099/medium.jpg"}}]}